[{"OBJECT_NAME":"ONEWEB-0087","OBJECT_ID":"2020-020AD","EPOCH":"2025-08-06T22:01:08.226048","MEAN_MOTION":13.11419113,"ECCENTRICITY":0.00019844,"INCLINATION":87.8799,"RA_OF_ASC_NODE":83.6409,"ARG_OF_PERICENTER":83.753,"MEAN_ANOMALY":276.3824,"EPHEMERIS_TYPE":0,"CLASSIFICATION_TYPE":"U","NORAD_CAT_ID":45451,"ELEMENT_SET_NO":999,"REV_AT_EPOCH":26139,"BSTAR":0.0014574886,"MEAN_MOTION_DOT":5.29e-6,"MEAN_MOTION_DDOT":0},{"OBJECT_NAME":"ONEWEB-0082","OBJECT_ID":"2020-020AE","EPOCH":"2025-08-06T21:56:28.499136","MEAN_MOTION":13.11412875,"ECCENTRICITY":0.0002053,"INCLINATION":87.8799,"RA_OF_ASC_NODE":83.6667,"ARG_OF_PERICENTER":76.0542,"MEAN_ANOMALY":284.0815,"EPHEMERIS_TYPE":0,"CLASSIFICATION_TYPE":"U","NORAD_CAT_ID":45452,"ELEMENT_SET_NO":999,"REV_AT_EPOCH":26148,"BSTAR":0.005052964,"MEAN_MOTION_DOT":1.804e-5,"MEAN_MOTION_DDOT":0},{"OBJECT_NAME":"ONEWEB-0050","OBJECT_ID":"2020-020AF","EPOCH":"2025-08-06T22:15:14.272128","MEAN_MOTION":14.9090641,"ECCENTRICITY":0.00041873,"INCLINATION":87.9973,"RA_OF_ASC_NODE":282.4741,"ARG_OF_PERICENTER":61.5141,"MEAN_ANOMALY":298.6509,"EPHEMERIS_TYPE":0,"CLASSIFICATION_TYPE":"U","NORAD_CAT_ID":45453,"ELEMENT_SET_NO":999,"REV_AT_EPOCH":29359,"BSTAR":0.00025881475,"MEAN_MOTION_DOT":2.576e-5,"MEAN_MOTION_DDOT":0},{"OBJECT_NAME":"ONEWEB-0034","OBJECT_ID":"2020-020AG","EPOCH":"2025-08-06T20:37:06.576960","MEAN_MOTION":13.11414301,"ECCENTRICITY":0.00017803,"INCLINATION":87.8802,"RA_OF_ASC_NODE":83.6977,"ARG_OF_PERICENTER":80.8704,"MEAN_ANOMALY":279.2626,"EPHEMERIS_TYPE":0,"CLASSIFICATION_TYPE":"U","NORAD_CAT_ID":45454,"ELEMENT_SET_NO":999,"REV_AT_EPOCH":26139,"BSTAR":0.00098427132,"MEAN_MOTION_DOT":3.62e-6,"MEAN_MOTION_DDOT":0},{"OBJECT_NAME":"ONEWEB-0060","OBJECT_ID":"2020-020AH","EPOCH":"2025-08-06T21:45:29.251584","MEAN_MOTION":13.11416752,"ECCENTRICITY":0.00029217,"INCLINATION":87.88,"RA_OF_ASC_NODE":83.7172,"ARG_OF_PERICENTER":75.7309,"MEAN_ANOMALY":284.4144,"EPHEMERIS_TYPE":0,"CLASSIFICATION_TYPE":"U","NORAD_CAT_ID":45455,"ELEMENT_SET_NO":999,"REV_AT_EPOCH":26135,"BSTAR":0.0004149485,"MEAN_MOTION_DOT":1.6e-6,"MEAN_MOTION_DDOT":0},{"OBJECT_NAME":"ONEWEB-0086","OBJECT_ID":"2020-020AJ","EPOCH":"2025-08-06T21:14:57.851520","MEAN_MOTION":13.11416072,"ECCENTRICITY":0.0002307,"INCLINATION":87.8804,"RA_OF_ASC_NODE":83.6901,"ARG_OF_PERICENTER":66.1406,"MEAN_ANOMALY":293.9964,"EPHEMERIS_TYPE":0,"CLASSIFICATION_TYPE":"U","NORAD_CAT_ID":45456,"ELEMENT_SET_NO":999,"REV_AT_EPOCH":26141,"BSTAR":-0.0014336906,"MEAN_MOTION_DOT":-4.95e-6,"MEAN_MOTION_DDOT":0},{"OBJECT_NAME":"ONEWEB-0088","OBJECT_ID":"2020-020AK","EPOCH":"2025-08-06T20:43:12.197568","MEAN_MOTION":13.11413841,"ECCENTRICITY":0.00018153,"INCLINATION":87.8795,"RA_OF_ASC_NODE":83.6412,"ARG_OF_PERICENTER":85.5021,"MEAN_ANOMALY":274.6314,"EPHEMERIS_TYPE":0,"CLASSIFICATION_TYPE":"U","NORAD_CAT_ID":45457,"ELEMENT_SET_NO":999,"REV_AT_EPOCH":26134,"BSTAR":0.00012678641,"MEAN_MOTION_DOT":5.8e-7,"MEAN_MOTION_DDOT":0},{"OBJECT_NAME":"ONEWEB-0102","OBJECT_ID":"2020-100A","EPOCH":"2025-08-06T13:55:31.609344","MEAN_MOTION":13.12443416,"ECCENTRICITY":0.00016002,"INCLINATION":87.8849,"RA_OF_ASC_NODE":53.2235,"ARG_OF_PERICENTER":84.467,"MEAN_ANOMALY":275.6641,"EPHEMERIS_TYPE":0,"CLASSIFICATION_TYPE":"U","NORAD_CAT_ID":47258,"ELEMENT_SET_NO":999,"REV_AT_EPOCH":22346,"BSTAR":-0.00067905106,"MEAN_MOTION_DOT":-2.32e-6,"MEAN_MOTION_DDOT":0},{"OBJECT_NAME":"ONEWEB-0109","OBJECT_ID":"2020-100B","EPOCH":"2025-08-06T21:26:20.980032","MEAN_MOTION":13.12443291,"ECCENTRICITY":0.00016786,"INCLINATION":87.8848,"RA_OF_ASC_NODE":53.1307,"ARG_OF_PERICENTER":84.1779,"MEAN_ANOMALY":275.9541,"EPHEMERIS_TYPE":0,"CLASSIFICATION_TYPE":"U","NORAD_CAT_ID":47259,"ELEMENT_SET_NO":999,"REV_AT_EPOCH":22333,"BSTAR":-7.5284393e-5,"MEAN_MOTION_DOT":-1.4e-7,"MEAN_MOTION_DDOT":0},{"OBJECT_NAME":"ONEWEB-0110","OBJECT_ID":"2020-100C","EPOCH":"2025-08-06T14:44:35.818944","MEAN_MOTION":13.12442496,"ECCENTRICITY":0.00019443,"INCLINATION":87.8854,"RA_OF_ASC_NODE":53.1695,"ARG_OF_PERICENTER":81.1947,"MEAN_ANOMALY":278.9401,"EPHEMERIS_TYPE":0,"CLASSIFICATION_TYPE":"U","NORAD_CAT_ID":47260,"ELEMENT_SET_NO":999,"REV_AT_EPOCH":22346,"BSTAR":0.0011088836,"MEAN_MOTION_DOT":4.12e-6,"MEAN_MOTION_DDOT":0},{"OBJECT_NAME":"ONEWEB-0111","OBJECT_ID":"2020-100D","EPOCH":"2025-08-06T13:39:10.532160","MEAN_MOTION":13.12442933,"ECCENTRICITY":0.00017202,"INCLINATION":87.8856,"RA_OF_ASC_NODE":53.1943,"ARG_OF_PERICENTER":86.9315,"MEAN_ANOMALY":273.201,"EPHEMERIS_TYPE":0,"CLASSIFICATION_TYPE":"U","NORAD_CAT_ID":47261,"ELEMENT_SET_NO":999,"REV_AT_EPOCH":22329,"BSTAR":-0.00099249359,"MEAN_MOTION_DOT":-3.44e-6,"MEAN_MOTION_DDOT":0},{"OBJECT_NAME":"ONEWEB-0114","OBJECT_ID":"2020-100E","EPOCH":"2025-08-06T21:42:40.995360","MEAN_MOTION":13.12443045,"ECCENTRICITY":0.00014242,"INCLINATION":87.8842,"RA_OF_ASC_NODE":53.1245,"ARG_OF_PERICENTER":86.0304,"MEAN_ANOMALY":274.0988,"EPHEMERIS_TYPE":0,"CLASSIFICATION_TYPE":"U","NORAD_CAT_ID":47262,"ELEMENT_SET_NO":999,"REV_AT_EPOCH":22329,"BSTAR":0.00071437315,"MEAN_MOTION_DOT":2.7e-6,"MEAN_MOTION_DDOT":0},{"OBJECT_NAME":"ONEWEB-0117","OBJECT_ID":"2020-100F","EPOCH":"2025-08-06T14:11:52.948320","MEAN_MOTION":13.12445027,"ECCENTRICITY":0.00018705,"INCLINATION":87.8855,"RA_OF_ASC_NODE":53.1813,"ARG_OF_PERICENTER":87.536,"MEAN_ANOMALY":272.5982,"EPHEMERIS_TYPE":0,"CLASSIFICATION_TYPE":"U","NORAD_CAT_ID":47263,"ELEMENT_SET_NO":999,"REV_AT_EPOCH":22326,"BSTAR":0.00058243677,"MEAN_MOTION_DOT":2.22e-6,"MEAN_MOTION_DDOT":0},{"OBJECT_NAME":"ONEWEB-0118","OBJECT_ID":"2020-100G","EPOCH":"2025-08-06T22:17:44.058624","MEAN_MOTION":13.12441956,"ECCENTRICITY":0.00014575,"INCLINATION":87.8855,"RA_OF_ASC_NODE":53.1144,"ARG_OF_PERICENTER":96.4588,"MEAN_ANOMALY":263.6706,"EPHEMERIS_TYPE":0,"CLASSIFICATION_TYPE":"U","NORAD_CAT_ID":47264,"ELEMENT_SET_NO":999,"REV_AT_EPOCH":22350,"BSTAR":0.00046045232,"MEAN_MOTION_DOT":1.78e-6,"MEAN_MOTION_DDOT":0},{"OBJECT_NAME":"ONEWEB-0119","OBJECT_ID":"2020-100H","EPOCH":"2025-08-06T13:48:31.642272","MEAN_MOTION":13.12443038,"ECCENTRICITY":0.00017631,"INCLINATION":87.8849,"RA_OF_ASC_NODE":53.224,"ARG_OF_PERICENTER":86.1905,"MEAN_ANOMALY":273.9425,"EPHEMERIS_TYPE":0,"CLASSIFICATION_TYPE":"U","NORAD_CAT_ID":47265,"ELEMENT_SET_NO":999,"REV_AT_EPOCH":22343,"BSTAR":-0.0010017266,"MEAN_MOTION_DOT":-3.48e-6,"MEAN_MOTION_DDOT":0},{"OBJECT_NAME":"ONEWEB-0120","OBJECT_ID":"2020-100J","EPOCH":"2025-08-06T21:40:32.814912","MEAN_MOTION":13.12451929,"ECCENTRICITY":0.00016959,"INCLINATION":87.8858,"RA_OF_ASC_NODE":53.1562,"ARG_OF_PERICENTER":86.5631,"MEAN_ANOMALY":273.5692,"EPHEMERIS_TYPE":0,"CLASSIFICATION_TYPE":"U","NORAD_CAT_ID":47266,"ELEMENT_SET_NO":999,"REV_AT_EPOCH":22350,"BSTAR":-0.0020336402,"MEAN_MOTION_DOT":-7.19e-6,"MEAN_MOTION_DDOT":0},{"OBJECT_NAME":"ONEWEB-0121","OBJECT_ID":"2020-100K","EPOCH":"2025-08-06T21:24:01.479456","MEAN_MOTION":13.12444339,"ECCENTRICITY":0.00018392,"INCLINATION":87.8852,"RA_OF_ASC_NODE":53.1277,"ARG_OF_PERICENTER":85.4537,"MEAN_ANOMALY":274.6801,"EPHEMERIS_TYPE":0,"CLASSIFICATION_TYPE":"U","NORAD_CAT_ID":47267,"ELEMENT_SET_NO":999,"REV_AT_EPOCH":22341,"BSTAR":-0.00014361374,"MEAN_MOTION_DOT":-3.9e-7,"MEAN_MOTION_DDOT":0}]
