ONEWEB-0087             
1 45451U 20020AD  25218.91745632  .00000529  00000+0  14575-2 0  9997
2 45451  87.8799  83.6409 0001984  83.7530 276.3824 13.11419113261395
ONEWEB-0082             
1 45452U 20020AE  25218.91421874  .00001804  00000+0  50530-2 0  9995
2 45452  87.8799  83.6667 0002053  76.0542 284.0815 13.11412875261482
ONEWEB-0050             
1 45453U 20020AF  25218.92724852  .00002576  00000+0  25881-3 0  9998
2 45453  87.9973 282.4741 0004187  61.5141 298.6509 14.90906410293593
ONEWEB-0034             
1 45454U 20020AG  25218.85910390  .00000362  00000+0  98427-3 0  9992
2 45454  87.8802  83.6977 0001780  80.8704 279.2626 13.11414301261394
ONEWEB-0060             
1 45455U 20020AH  25218.90658856  .00000160  00000+0  41495-3 0  9994
2 45455  87.8800  83.7172 0002921  75.7309 284.4144 13.11416752261354
ONEWEB-0086             
1 45456U 20020AJ  25218.88539180 -.00000495  00000+0 -14337-2 0  9997
2 45456  87.8804  83.6901 0002307  66.1406 293.9964 13.11416072261415
ONEWEB-0088             
1 45457U 20020AK  25218.86333562  .00000058  00000+0  12679-3 0  9993
2 45457  87.8795  83.6412 0001815  85.5021 274.6314 13.11413841261341
ONEWEB-0102             
1 47258U 20100A   25218.58022696 -.00000232  00000+0 -67905-3 0  9993
2 47258  87.8849  53.2235 0001600  84.4670 275.6641 13.12443416223465
ONEWEB-0109             
1 47259U 20100B   25218.89329838 -.00000014  00000+0 -75284-4 0  9994
2 47259  87.8848  53.1307 0001678  84.1779 275.9541 13.12443291223335
ONEWEB-0110             
1 47260U 20100C   25218.61430346  .00000412  00000+0  11089-2 0  9994
2 47260  87.8854  53.1695 0001944  81.1947 278.9401 13.12442496223462
ONEWEB-0111             
1 47261U 20100D   25218.56887190 -.00000344  00000+0 -99249-3 0  9993
2 47261  87.8856  53.1943 0001720  86.9315 273.2010 13.12442933223296
ONEWEB-0114             
1 47262U 20100E   25218.90464115  .00000270  00000+0  71437-3 0  9995
2 47262  87.8842  53.1245 0001424  86.0304 274.0988 13.12443045223295
ONEWEB-0117             
1 47263U 20100F   25218.59158505  .00000222  00000+0  58244-3 0  9992
2 47263  87.8855  53.1813 0001870  87.5360 272.5982 13.12445027223260
ONEWEB-0118             
1 47264U 20100G   25218.92898216  .00000178  00000+0  46045-3 0  9996
2 47264  87.8855  53.1144 0001457  96.4588 263.6706 13.12441956223509
ONEWEB-0119             
1 47265U 20100H   25218.57536623 -.00000348  00000+0 -10017-2 0  9999
2 47265  87.8849  53.2240 0001763  86.1905 273.9425 13.12443038223437
ONEWEB-0120             
1 47266U 20100J   25218.90315758 -.00000719  00000+0 -20336-2 0  9998
2 47266  87.8858  53.1562 0001695  86.5631 273.5692 13.12451929223506
ONEWEB-0121             
1 47267U 20100K   25218.89168379 -.00000039  00000+0 -14361-3 0  9999
2 47267  87.8852  53.1277 0001839  85.4537 274.6801 13.12444339223418
